*******************************************************************************
Ephemeris / WWW_USER Mon Mar 26 22:10:36 2018 Pasadena, USA      / Horizons    
*******************************************************************************
Target body name: Mimas (601)                     {source: sat389}
Center body name: Solar System Barycenter (0)     {source: DE431mx}
Center-site name: BODY CENTER
*******************************************************************************
Start time      : A.D. 2000-Jan-01 00:00:00.0000 TDB
Stop  time      : A.D. 2005-Jan-01 00:00:00.0000 TDB
Step-size       : 7200 minutes
*******************************************************************************
Center geodetic : 0.00000000,0.00000000,0.0000000 {E-lon(deg),Lat(deg),Alt(km)}
Center cylindric: 0.00000000,0.00000000,0.0000000 {E-lon(deg),Dxy(km),Dz(km)}
Center radii    : (undefined)                                                  
Output units    : AU-D                                                         
Output type     : GEOMETRIC cartesian states
Output format   : 2 (position and velocity)
Reference frame : ICRF/J2000.0                                                 
Coordinate systm: Ecliptic and Mean Equinox of Reference Epoch                 
*******************************************************************************
JDTDB
   X     Y     Z
   VX    VY    VZ
*******************************************************************************
$$SOE
2452174.500000000 = A.D. 2001-Sep-22 00:00:00.0000 TDB 
   3.283151821561315E+00  8.447978203894705E+00 -2.772184771338425E-01
   1.563650188460285E-03  5.382657457972556E-03 -2.286784955346718E-03
2452179.500000000 = A.D. 2001-Sep-27 00:00:00.0000 TDB 
   3.255861831130834E+00  8.459758015155776E+00 -2.772010134967087E-01
  -1.155415253352689E-02  7.105861205523643E-03 -1.670700993069233E-03
2452184.500000000 = A.D. 2001-Oct-02 00:00:00.0000 TDB 
   3.226374725916497E+00  8.469341139545037E+00 -2.758997660878851E-01
  -8.606788059352496E-03 -4.887003779168029E-03  3.899428150540003E-03
2452189.500000000 = A.D. 2001-Oct-07 00:00:00.0000 TDB 
   3.199960916399939E+00  8.477599519002219E+00 -2.743255023690104E-01
   2.777742274692640E-03  1.599330397048854E-03 -5.160069046286637E-04
2452194.500000000 = A.D. 2001-Oct-12 00:00:00.0000 TDB 
   3.173542242280052E+00  8.488770123162803E+00 -2.742180874676859E-01
  -8.141985699568838E-03  8.933281740480770E-03 -2.973349707108244E-03
2452199.500000000 = A.D. 2001-Oct-17 00:00:00.0000 TDB 
   3.144004277684787E+00  8.499030918007286E+00 -2.733849455366243E-01
  -1.206475637022873E-02 -2.354092495286423E-03  2.939442242061240E-03
2452204.500000000 = A.D. 2001-Oct-22 00:00:00.0000 TDB 
   3.116469885356486E+00  8.506767804751188E+00 -2.715638454595418E-01
   1.662741288392970E-03 -2.257353020164596E-03  1.521099763884441E-03
2452209.500000000 = A.D. 2001-Oct-27 00:00:00.0000 TDB 
   3.090635260778358E+00  8.516940640086972E+00 -2.711384795139041E-01
  -4.053548542225556E-03  9.048346611022901E-03 -3.457421749745209E-03
2452214.500000000 = A.D. 2001-Nov-01 00:00:00.0000 TDB 
   3.061545644650669E+00  8.527706623190982E+00 -2.707341927489365E-01
  -1.361045020328917E-02  1.191510739882591E-03  1.267932564895776E-03
2452219.500000000 = A.D. 2001-Nov-06 00:00:00.0000 TDB 
   3.032873939763653E+00  8.535438423370687E+00 -2.689304991827924E-01
  -1.611634222169900E-03 -4.958946685280470E-03  3.173756000221784E-03
2452224.500000000 = A.D. 2001-Nov-11 00:00:00.0000 TDB 
   3.007128546403706E+00  8.544404656214006E+00 -2.680326124075496E-01
  -1.962255263848096E-04  7.316260441667431E-03 -2.966551986018548E-03
2452229.500000000 = A.D. 2001-Nov-16 00:00:00.0000 TDB 
   2.978844273086856E+00  8.555328939323200E+00 -2.679129981753364E-01
  -1.307115500558625E-02  4.771506806237781E-03 -6.237477956222625E-04
2452234.500000000 = A.D. 2001-Nov-21 00:00:00.0000 TDB 
   2.949316535629812E+00  8.563474752764307E+00 -2.663696968397846E-01
  -5.969203564730740E-03 -5.641653234139136E-03  3.892602977558603E-03
2452239.500000000 = A.D. 2001-Nov-26 00:00:00.0000 TDB 
   2.923086223358964E+00  8.571298750897412E+00 -2.649787041387796E-01
   2.347677576645988E-03  3.983193188980631E-03 -1.528429338220242E-03
2452244.500000000 = A.D. 2001-Dec-01 00:00:00.0000 TDB 
   2.895755131540698E+00  8.581925682106160E+00 -2.649228367999609E-01
  -1.068185027053450E-02  7.602844819222876E-03 -2.303214182281839E-03
2452249.500000000 = A.D. 2001-Dec-06 00:00:00.0000 TDB 
   2.865832670548102E+00  8.590704761381284E+00 -2.637967274461426E-01
  -1.002646539343267E-02 -4.279270577851299E-03  3.530663991655108E-03
2452254.500000000 = A.D. 2001-Dec-11 00:00:00.0000 TDB 
   2.838659527129578E+00  8.597719680515352E+00 -2.620421866786739E-01
   2.635705594977638E-03 -7.979221847862102E-05  4.917351556187718E-04
2452259.500000000 = A.D. 2001-Dec-16 00:00:00.0000 TDB 
   2.812159949392385E+00  8.607576206343131E+00 -2.617948625591185E-01
  -6.916735799165200E-03  9.032171225720882E-03 -3.382467305966370E-03
2452264.500000000 = A.D. 2001-Dec-21 00:00:00.0000 TDB 
   2.782359193703586E+00  8.616986667877171E+00 -2.611329048192230E-01
  -1.278102868000166E-02 -1.455403779037700E-03  2.292861043353826E-03
2452269.500000000 = A.D. 2001-Dec-26 00:00:00.0000 TDB 
   2.754052037855884E+00  8.623672176895036E+00 -2.592453898866274E-01
   5.027360222729355E-04 -3.567767367402535E-03  2.432813853342023E-03
2452274.500000000 = A.D. 2001-Dec-31 00:00:00.0000 TDB 
   2.727985611233124E+00  8.632406941639543E+00 -2.585892317261767E-01
  -2.602782565160102E-03  8.539164872971921E-03 -3.512201945462221E-03
2452279.500000000 = A.D. 2002-Jan-05 00:00:00.0000 TDB 
   2.698779312644859E+00  8.642235753210516E+00 -2.583238214459578E-01
  -1.372176620974443E-02  2.080800287339712E-03  5.191016370760015E-04
2452284.500000000 = A.D. 2002-Jan-10 00:00:00.0000 TDB 
   2.669438967828820E+00  8.649059627315649E+00 -2.565552348960441E-01
  -3.257481115747114E-03 -5.447048369461463E-03  3.686038330281784E-03
2452289.500000000 = A.D. 2002-Jan-15 00:00:00.0000 TDB 
   2.643239849599488E+00  8.656576067303209E+00 -2.553901875860243E-01
   1.008014402537703E-03  6.039223718344765E-03 -2.534524946688530E-03
2452294.500000000 = A.D. 2002-Jan-20 00:00:00.0000 TDB 
   2.614952722064030E+00  8.666424200547633E+00 -2.553424087817568E-01
  -1.264271289566239E-02  5.558756208964440E-03 -1.406657034886614E-03
2452299.500000000 = A.D. 2002-Jan-25 00:00:00.0000 TDB 
   2.584907564946776E+00  8.673732743951295E+00 -2.539029123627969E-01
  -7.465640865404407E-03 -5.392485627550791E-03  3.973211325572154E-03
2452304.500000000 = A.D. 2002-Jan-30 00:00:00.0000 TDB 
   2.558038240920419E+00  8.680221670980586E+00 -2.522812693280423E-01
   2.673615335784336E-03  2.229830952882497E-03 -7.025769801497735E-04
2452309.500000000 = A.D. 2002-Feb-04 00:00:00.0000 TDB 
   2.530730947097612E+00  8.689584189919541E+00 -2.521923537143144E-01
  -9.633908456021564E-03  8.117893066532000E-03 -3.022362604019947E-03
2452314.500000000 = A.D. 2002-Feb-09 00:00:00.0000 TDB 
   2.500456096664774E+00  8.697544554359990E+00 -2.512122631413480E-01
  -1.110992049008175E-02 -3.607579184960952E-03  3.304503542776634E-03
2452319.500000000 = A.D. 2002-Feb-14 00:00:00.0000 TDB 
   2.472572762439567E+00  8.703397409068657E+00 -2.493088062918679E-01
   1.908681152129738E-03 -1.637249827847934E-03  1.372670376003476E-03
2452324.500000000 = A.D. 2002-Feb-19 00:00:00.0000 TDB 
   2.445986646589591E+00  8.711818986911000E+00 -2.489169139140975E-01
  -5.338657984298775E-03  8.891507503331897E-03 -3.810877139201706E-03
2452329.500000000 = A.D. 2002-Feb-24 00:00:00.0000 TDB 
   2.416017877544526E+00  8.720375982607941E+00 -2.484153305769369E-01
  -1.342195059090291E-02 -5.338143359232729E-04  1.836649416680726E-03
2452334.500000000 = A.D. 2002-Mar-01 00:00:00.0000 TDB 
   2.387032655157270E+00  8.726055546711125E+00 -2.464659337196996E-01
  -8.480640209614813E-04 -4.463806345033367E-03  3.077427337327563E-03
2452339.500000000 = A.D. 2002-Mar-06 00:00:00.0000 TDB 
   2.360669649975248E+00  8.733291803074787E+00 -2.455982857552233E-01
  -1.061696269394719E-03  7.465666628571217E-03 -3.434272649986543E-03
2452344.500000000 = A.D. 2002-Mar-11 00:00:00.0000 TDB 
   2.331474184312675E+00  8.742146826879837E+00 -2.454594439463548E-01
  -1.378335419437202E-02  3.178385323726521E-03 -1.475470294512110E-04
2452349.500000000 = A.D. 2002-Mar-16 00:00:00.0000 TDB 
   2.301546662465666E+00  8.748083643659726E+00 -2.437064859729844E-01
  -4.727809873289855E-03 -5.676338063624119E-03  4.032113608150414E-03
2452354.500000000 = A.D. 2002-Mar-21 00:00:00.0000 TDB 
   2.274848835625257E+00  8.754166739195190E+00 -2.423302459270244E-01
   1.779657312228783E-03  4.303666106017246E-03 -2.008255528840133E-03
2452359.500000000 = A.D. 2002-Mar-26 00:00:00.0000 TDB 
   2.246663313809393E+00  8.762836973845760E+00 -2.423194750600828E-01
  -1.186908665107263E-02  6.559175360591950E-03 -2.165507187304295E-03
2452364.500000000 = A.D. 2002-Mar-31 00:00:00.0000 TDB 
   2.216172695079177E+00  8.769345439780274E+00 -2.409652275426257E-01
  -8.829452289163580E-03 -5.103055144474733E-03  4.061517728175602E-03
2452369.500000000 = A.D. 2002-Apr-05 00:00:00.0000 TDB 
   2.188685879504796E+00  8.774538291448106E+00 -2.391785026785595E-01
   2.441026570192953E-03  4.813000593685605E-04 -3.277533071235382E-05
2452374.500000000 = A.D. 2002-Apr-10 00:00:00.0000 TDB 
   2.161417792897057E+00  8.782514724260961E+00 -2.390165239089997E-01
  -8.067595341609760E-03  8.474649356145787E-03 -3.577955200895831E-03
2452379.500000000 = A.D. 2002-Apr-15 00:00:00.0000 TDB 
   2.130902083796337E+00  8.789702221717013E+00 -2.381691039199330E-01
  -1.224343021893093E-02 -2.826143293443279E-03  3.119782893290673E-03
